start=new Date('2021-09-29T00:00:00.000Z').valueOf();
sats=[{"REV_AT_EPOCH":"8535","PERIOD":"95.593","MEAN_MOTION_DOT":"0.00000159","LAUNCH_DATE":"2020-03-18","CLASSIFICATION_TYPE":"U","EPOCH":"2021-09-28T11:36:26.039808","ECCENTRICITY":"0.00014580","APOAPSIS":"548.241","CENTER_NAME":"EARTH","RCS_SIZE":"LARGE","GP_ID":"185714047","SITE":"AFETR","TIME_SYSTEM":"UTC","FILE":"3132662","BSTAR":"0.00002957000000","OBJECT_TYPE":"PAYLOAD","ELEMENT_SET_NO":"999","OBJECT_ID":"2020-019B","COUNTRY_CODE":"US","MEAN_MOTION":"15.06394119","MEAN_ANOMALY":"282.4000","OBJECT_NAME":"STARLINK-1301","MEAN_MOTION_DDOT":"0.0000000000000","SEMIMAJOR_AXIS":"6925.367","EPHEMERIS_TYPE":"0","ARG_OF_PERICENTER":"77.7152","REF_FRAME":"TEME","RA_OF_ASC_NODE":"233.4752","PERIAPSIS":"546.222","NORAD_CAT_ID":"45361","INCLINATION":"53.0540","TLE_LINE1":"1 45361U 20019B   21271.48363472  .00000159  00000-0  29570-4 0  9993","DECAY_DATE":null,"MEAN_ELEMENT_THEORY":"SGP4","TLE_LINE2":"2 45361  53.0540 233.4752 0001458  77.7152 282.4000 15.06394119 85357"},{"SEMIMAJOR_AXIS":"6925.361","MEAN_MOTION_DDOT":"0.0000000000000","OBJECT_NAME":"STARLINK-1306","EPHEMERIS_TYPE":"0","MEAN_ANOMALY":"291.7295","ARG_OF_PERICENTER":"68.3815","RA_OF_ASC_NODE":"253.2694","REF_FRAME":"TEME","NORAD_CAT_ID":"45362","PERIAPSIS":"546.441","DECAY_DATE":null,"TLE_LINE1":"1 45362U 20019C   21271.52970175  .00001585  00000-0  12526-3 0  9999","TLE_LINE2":"2 45362  53.0536 253.2694 0001133  68.3815 291.7295 15.06396031 85073","MEAN_ELEMENT_THEORY":"SGP4","INCLINATION":"53.0536","CLASSIFICATION_TYPE":"U","EPOCH":"2021-09-28T12:42:46.231200","LAUNCH_DATE":"2020-03-18","ECCENTRICITY":"0.00011330","PERIOD":"95.592","MEAN_MOTION_DOT":"0.00001585","REV_AT_EPOCH":"8507","CENTER_NAME":"EARTH","GP_ID":"185714297","RCS_SIZE":"LARGE","APOAPSIS":"548.010","OBJECT_TYPE":"PAYLOAD","SITE":"AFETR","BSTAR":"0.00012526000000","FILE":"3132662","TIME_SYSTEM":"UTC","OBJECT_ID":"2020-019C","ELEMENT_SET_NO":"999","COUNTRY_CODE":"US","MEAN_MOTION":"15.06396031"},{"APOAPSIS":"548.275","CENTER_NAME":"EARTH","GP_ID":"185715046","RCS_SIZE":"LARGE","PERIOD":"95.592","MEAN_MOTION_DOT":"0.00000648","REV_AT_EPOCH":"8549","EPOCH":"2021-09-28T13:23:54.269664","CLASSIFICATION_TYPE":"U","LAUNCH_DATE":"2020-03-18","ECCENTRICITY":"0.00015280","OBJECT_ID":"2020-019E","ELEMENT_SET_NO":"999","MEAN_MOTION":"15.06398827","COUNTRY_CODE":"US","SITE":"AFETR","BSTAR":"0.00006237500000","FILE":"3132662","TIME_SYSTEM":"UTC","OBJECT_TYPE":"PAYLOAD","ARG_OF_PERICENTER":"80.6354","REF_FRAME":"TEME","RA_OF_ASC_NODE":"223.1432","MEAN_ANOMALY":"279.4808","SEMIMAJOR_AXIS":"6925.352","OBJECT_NAME":"STARLINK-1313","MEAN_MOTION_DDOT":"0.0000000000000","EPHEMERIS_TYPE":"0","INCLINATION":"53.0543","DECAY_DATE":null,"TLE_LINE1":"1 45364U 20019E   21271.55826701  .00000648  00000-0  62375-4 0  9996","TLE_LINE2":"2 45364  53.0543 223.1432 0001528  80.6354 279.4808 15.06398827 85496","MEAN_ELEMENT_THEORY":"SGP4","PERIAPSIS":"546.159","NORAD_CAT_ID":"45364"},{"INCLINATION":"53.0015","MEAN_ELEMENT_THEORY":"SGP4","TLE_LINE2":"2 45365  53.0015 233.1369 0001461  68.3856 291.7288 15.05591098 85333","TLE_LINE1":"1 45365U 20019F   21271.55774441  .00001750  00000-0  13923-3 0  9999","DECAY_DATE":null,"PERIAPSIS":"548.682","NORAD_CAT_ID":"45365","RA_OF_ASC_NODE":"233.1369","REF_FRAME":"TEME","ARG_OF_PERICENTER":"68.3856","MEAN_ANOMALY":"291.7288","EPHEMERIS_TYPE":"0","MEAN_MOTION_DDOT":"0.0000000000000","OBJECT_NAME":"STARLINK-1317","SEMIMAJOR_AXIS":"6927.829","MEAN_MOTION":"15.05591098","COUNTRY_CODE":"US","ELEMENT_SET_NO":"999","OBJECT_ID":"2020-019F","TIME_SYSTEM":"UTC","BSTAR":"0.00013923000000","FILE":"3132662","SITE":"AFETR","OBJECT_TYPE":"PAYLOAD","APOAPSIS":"550.706","RCS_SIZE":"LARGE","GP_ID":"185714798","CENTER_NAME":"EARTH","REV_AT_EPOCH":"8533","MEAN_MOTION_DOT":"0.00001750","PERIOD":"95.643","ECCENTRICITY":"0.00014610","LAUNCH_DATE":"2020-03-18","EPOCH":"2021-09-28T13:23:09.117024","CLASSIFICATION_TYPE":"U"},{"NORAD_CAT_ID":"45366","PERIAPSIS":"546.487","TLE_LINE2":"2 45366  53.0535 253.3322 0001081  72.0006 288.1101 15.06392890 85087","MEAN_ELEMENT_THEORY":"SGP4","DECAY_DATE":null,"TLE_LINE1":"1 45366U 20019G   21271.51496384 -.00000271  00000-0  68962-6 0  9997","INCLINATION":"53.0535","EPHEMERIS_TYPE":"0","SEMIMAJOR_AXIS":"6925.370","MEAN_MOTION_DDOT":"0.0000000000000","OBJECT_NAME":"STARLINK-1262","MEAN_ANOMALY":"288.1101","REF_FRAME":"TEME","RA_OF_ASC_NODE":"253.3322","ARG_OF_PERICENTER":"72.0006","OBJECT_TYPE":"PAYLOAD","FILE":"3132662","BSTAR":"0.00000068962000","TIME_SYSTEM":"UTC","SITE":"AFETR","COUNTRY_CODE":"US","MEAN_MOTION":"15.06392890","OBJECT_ID":"2020-019G","ELEMENT_SET_NO":"999","ECCENTRICITY":"0.00010810","EPOCH":"2021-09-28T12:21:32.875776","CLASSIFICATION_TYPE":"U","LAUNCH_DATE":"2020-03-18","PERIOD":"95.593","MEAN_MOTION_DOT":"-0.00000271","REV_AT_EPOCH":"8508","GP_ID":"185713547","RCS_SIZE":"LARGE","CENTER_NAME":"EARTH","APOAPSIS":"547.984"},{"NORAD_CAT_ID":"45367","PERIAPSIS":"546.388","TLE_LINE2":"2 45367  53.0542 253.2427 0001197  57.8883 302.2222 15.06398994 85086","MEAN_ELEMENT_THEORY":"SGP4","DECAY_DATE":null,"TLE_LINE1":"1 45367U 20019H   21271.53707578  .00002041  00000-0  15590-3 0  9992","INCLINATION":"53.0542","EPHEMERIS_TYPE":"0","SEMIMAJOR_AXIS":"6925.352","OBJECT_NAME":"STARLINK-1273","MEAN_MOTION_DDOT":"0.0000000000000","MEAN_ANOMALY":"302.2222","RA_OF_ASC_NODE":"253.2427","REF_FRAME":"TEME","ARG_OF_PERICENTER":"57.8883","OBJECT_TYPE":"PAYLOAD","BSTAR":"0.00015590000000","FILE":"3132662","TIME_SYSTEM":"UTC","SITE":"AFETR","COUNTRY_CODE":"US","MEAN_MOTION":"15.06398994","ELEMENT_SET_NO":"999","OBJECT_ID":"2020-019H","ECCENTRICITY":"0.00011970","CLASSIFICATION_TYPE":"U","EPOCH":"2021-09-28T12:53:23.347392","LAUNCH_DATE":"2020-03-18","MEAN_MOTION_DOT":"0.00002041","PERIOD":"95.592","REV_AT_EPOCH":"8508","GP_ID":"185713797","RCS_SIZE":"LARGE","CENTER_NAME":"EARTH","APOAPSIS":"548.046"},{"INCLINATION":"53.0528","MEAN_ELEMENT_THEORY":"SGP4","TLE_LINE2":"2 45368  53.0528 253.3739 0001258  59.9870 300.1243 15.06396819 85089","TLE_LINE1":"1 45368U 20019J   21271.50759374  .00002052  00000-0  15660-3 0  9991","DECAY_DATE":null,"PERIAPSIS":"546.352","NORAD_CAT_ID":"45368","RA_OF_ASC_NODE":"253.3739","REF_FRAME":"TEME","ARG_OF_PERICENTER":"59.9870","MEAN_ANOMALY":"300.1243","EPHEMERIS_TYPE":"0","OBJECT_NAME":"STARLINK-1276","MEAN_MOTION_DDOT":"0.0000000000000","SEMIMAJOR_AXIS":"6925.358","MEAN_MOTION":"15.06396819","COUNTRY_CODE":"US","OBJECT_ID":"2020-019J","ELEMENT_SET_NO":"999","TIME_SYSTEM":"UTC","FILE":"3132662","BSTAR":"0.00015660000000","SITE":"AFETR","OBJECT_TYPE":"PAYLOAD","APOAPSIS":"548.095","RCS_SIZE":"LARGE","GP_ID":"185714546","CENTER_NAME":"EARTH","REV_AT_EPOCH":"8508","MEAN_MOTION_DOT":"0.00002052","PERIOD":"95.592","ECCENTRICITY":"0.00012580","LAUNCH_DATE":"2020-03-18","CLASSIFICATION_TYPE":"U","EPOCH":"2021-09-28T12:10:56.099136"},{"MEAN_ANOMALY":"292.2442","OBJECT_NAME":"STARLINK-1277","MEAN_MOTION_DDOT":"0.0000000000000","SEMIMAJOR_AXIS":"6925.339","EPHEMERIS_TYPE":"0","ARG_OF_PERICENTER":"67.8677","RA_OF_ASC_NODE":"253.0773","REF_FRAME":"TEME","PERIAPSIS":"546.355","NORAD_CAT_ID":"45369","INCLINATION":"53.0543","TLE_LINE1":"1 45369U 20019K   21271.57298382  .00000173  00000-0  30480-4 0  9996","DECAY_DATE":null,"MEAN_ELEMENT_THEORY":"SGP4","TLE_LINE2":"2 45369  53.0543 253.0773 0001225  67.8677 292.2442 15.06403262 85093","REV_AT_EPOCH":"8509","MEAN_MOTION_DOT":"0.00000173","PERIOD":"95.592","LAUNCH_DATE":"2020-03-18","CLASSIFICATION_TYPE":"U","EPOCH":"2021-09-28T13:45:05.802048","ECCENTRICITY":"0.00012250","APOAPSIS":"548.052","CENTER_NAME":"EARTH","RCS_SIZE":"LARGE","GP_ID":"185715299","SITE":"AFETR","TIME_SYSTEM":"UTC","FILE":"3132662","BSTAR":"0.00003048000000","OBJECT_TYPE":"PAYLOAD","ELEMENT_SET_NO":"999","OBJECT_ID":"2020-019K","COUNTRY_CODE":"US","MEAN_MOTION":"15.06403262"},{"CENTER_NAME":"EARTH","GP_ID":"185714048","RCS_SIZE":"LARGE","APOAPSIS":"548.121","EPOCH":"2021-09-28T13:30:32.730048","CLASSIFICATION_TYPE":"U","LAUNCH_DATE":"2020-03-18","ECCENTRICITY":"0.00012720","PERIOD":"95.593","MEAN_MOTION_DOT":"-0.00000283","REV_AT_EPOCH":"8509","OBJECT_ID":"2020-019L","ELEMENT_SET_NO":"999","COUNTRY_CODE":"US","MEAN_MOTION":"15.06391261","OBJECT_TYPE":"PAYLOAD","SITE":"AFETR","BSTAR":"-0.00000014060000","FILE":"3132662","TIME_SYSTEM":"UTC","ARG_OF_PERICENTER":"61.9807","REF_FRAME":"TEME","RA_OF_ASC_NODE":"253.1161","SEMIMAJOR_AXIS":"6925.375","MEAN_MOTION_DDOT":"0.0000000000000","OBJECT_NAME":"STARLINK-1281","EPHEMERIS_TYPE":"0","MEAN_ANOMALY":"298.1311","DECAY_DATE":null,"TLE_LINE1":"1 45370U 20019L   21271.56287882 -.00000283  00000-0 -14060-6 0  9992","TLE_LINE2":"2 45370  53.0532 253.1161 0001272  61.9807 298.1311 15.06391261 85092","MEAN_ELEMENT_THEORY":"SGP4","INCLINATION":"53.0532","NORAD_CAT_ID":"45370","PERIAPSIS":"546.359"},{"SITE":"AFETR","FILE":"3132662","BSTAR":"-0.00000856090000","TIME_SYSTEM":"UTC","OBJECT_TYPE":"PAYLOAD","OBJECT_ID":"2020-019M","ELEMENT_SET_NO":"999","COUNTRY_CODE":"US","MEAN_MOTION":"15.06390548","PERIOD":"95.593","MEAN_MOTION_DOT":"-0.00000409","REV_AT_EPOCH":"8508","EPOCH":"2021-09-28T12:37:28.247232","CLASSIFICATION_TYPE":"U","LAUNCH_DATE":"2020-03-18","ECCENTRICITY":"0.00009890","APOAPSIS":"547.927","CENTER_NAME":"EARTH","GP_ID":"185714298","RCS_SIZE":"LARGE","PERIAPSIS":"546.558","NORAD_CAT_ID":"45371","INCLINATION":"53.0522","DECAY_DATE":null,"TLE_LINE1":"1 45371U 20019M   21271.52602138 -.00000409  00000-0 -85609-5 0  9990","TLE_LINE2":"2 45371  53.0522 253.2923 0000989  52.2920 307.8158 15.06390548 85085","MEAN_ELEMENT_THEORY":"SGP4","MEAN_ANOMALY":"307.8158","SEMIMAJOR_AXIS":"6925.378","OBJECT_NAME":"STARLINK-1287","MEAN_MOTION_DDOT":"0.0000000000000","EPHEMERIS_TYPE":"0","ARG_OF_PERICENTER":"52.2920","REF_FRAME":"TEME","RA_OF_ASC_NODE":"253.2923"}];
